{"fetched_at":"2026-03-29T02:12:04Z","count":15717,"tles":[{"name":"COSMOS 2522 (752)","line1":"1 42939U 17055A   26083.18703733  .00000020  00000+0  00000+0 0  9996","line2":"2 42939  64.0784 194.7748 0007868 230.2375 129.7005  2.13101803 66161","category":"Other"}]}